STARLINK-5517           
1 57249U 23094AH  25281.96414974  .00000404  00000+0  45009-4 0  9996
2 57249  43.0038 121.9451 0001271 266.6848  93.3849 15.02536788124447
STARLINK-5488           
1 57250U 23094AJ  25281.55531614  .00001547  00000+0  12962-3 0  9994
2 57250  43.0036 124.0950 0001250 258.2194 101.8509 15.02525209124380
STARLINK-5513           
1 57251U 23094AK  25281.62843705 -.00000160  00000+0  32056-5 0  9999
2 57251  43.0033 123.7837 0001244 264.2702  95.7998 15.02534076124399
STARLINK-5511           
1 57252U 23094AL  25281.94639152 -.00009222  00000+0 -66777-3 0  9998
2 57252  42.9996 121.8701 0001456 249.7662 110.3024 15.02575990124443
STARLINK-5516           
1 57253U 23094AM  25281.95971887 -.00000847  00000+0 -47667-4 0  9996
2 57253  43.0025 121.9686 0001116 269.9262  90.1453 15.02537241124443
STARLINK-5490           
1 57254U 23094AN  25281.94085030  .00000361  00000+0  41776-4 0  9996
2 57254  43.0027 121.8271 0001239 268.4607  91.6093 15.02537451124447
STARLINK-5481           
1 57255U 23094AP  25281.94306872  .00000003  00000+0  15274-4 0  9994
2 57255  43.0027 121.8439 0001165 273.4421  86.6288 15.02535939124441
STARLINK-5512           
1 57256U 23094AQ  25281.92309343 -.00000128  00000+0  55896-5 0  9993
2 57256  43.0029 121.7125 0001291 265.6977  94.3718 15.02536393124443
STARLINK-5503           
1 57257U 23094AR  25281.94972916  .00000934  00000+0  84217-4 0  9990
2 57257  43.0029 121.8946 0001250 269.4786  90.5914 15.02535829125104
STARLINK-5476           
1 57258U 23094AS  25281.60512975  .00000216  00000+0  31083-4 0  9995
2 57258  43.0043 123.6066 0001161 275.7006  84.3704 15.02536030124393
STARLINK-5026           
1 57260U 23094AU  25281.93086273 -.00000368  00000+0 -12182-4 0  9990
2 57260  43.0031 121.7511 0001155 264.8944  95.1766 15.02533219125081
STARLINK-5485           
1 57261U 23094AV  25281.93060454  .00000011  00000+0  15916-4 0  9995
2 57261  43.0031 134.7575 0001187 264.2142  95.8565 15.02537827124290
STARLINK-5504           
1 57262U 23094AW  25281.93974960  .00001881  00000+0  15433-3 0  9991
2 57262  43.0025 121.8191 0001241 268.4957  91.5743 15.02526943124441
STARLINK-5509           
1 57263U 23094AX  25281.92949834 -.00000940  00000+0 -54548-4 0  9991
2 57263  43.0024 134.7487 0001133 271.0027  89.0686 15.02530566124297
STARLINK-5858           
1 57264U 23094AY  25281.92642062  .00000115  00000+0  23583-4 0  9992
2 57264  43.0030 121.7179 0001222 269.2019  90.8683 15.02538327124445
STARLINK-5890           
1 57265U 23094AZ  25281.92420543 -.00000327  00000+0 -91570-5 0  9990
2 57265  43.0026 121.7035 0001021 274.2864  85.7861 15.02528982124440
STARLINK-30198          
1 57290U 23096A   25281.85893623  .00000644  00000+0  62722-4 0  9991
2 57290  43.0037 328.5562 0001203 270.2219  89.8485 15.02549536124775
STARLINK-30239          
1 57291U 23096B   25281.19082321  .00001064  00000+0  93818-4 0  9991
2 57291  43.0046 332.1419 0001612 269.2780  90.7877 15.02538409124675
STARLINK-30210          
1 57292U 23096C   25281.52934480  .00096565  00000+0  37645-2 0  9995
2 57292  42.9935 312.5373 0023670  58.3039 302.0116 15.24662114124810
STARLINK-30235          
1 57294U 23096E   25281.44674566  .00001105  00000+0  96877-4 0  9994
2 57294  43.0043 330.6224 0001316 278.5967  81.4727 15.02541862124716
STARLINK-30238          
1 57296U 23096G   25281.15606437  .00101490  00000+0  39562-2 0  9990
2 57296  42.9953 314.0545 0021367  57.2673 303.0234 15.24686031124901
STARLINK-30234          
1 57297U 23096H   25281.98316641  .00844161  00000+0  70469-2 0  9997
2 57297  42.9828 273.9759 0031632 114.3677 246.0495 15.66174551125426
STARLINK-30241          
1 57298U 23096J   25281.36534383  .00114910  00000+0  40388-2 0  9994
2 57298  42.9936 308.7366 0022304  66.8390 293.4809 15.28014228124962
STARLINK-30236          
1 57300U 23096L   25281.49990930  .00001448  00000+0  12223-3 0  9995
2 57300  43.0035 330.1573 0001044 278.9357  81.1367 15.02531335124768
STARLINK-30201          
1 57301U 23096M   25281.56305119  .00001676  00000+0  13909-3 0  9998
2 57301  43.0044 329.7739 0001167 267.8730  92.1979 15.02542548123831
STARLINK-30233          
1 57302U 23096N   25281.49323296  .00001651  00000+0  13721-3 0  9992
2 57302  43.0043 330.0870 0001329 263.1757  96.8934 15.02548094123823
STARLINK-30232          
1 57303U 23096P   25281.36943654  .00097180  00000+0  38256-2 0  9996
2 57303  42.9964 313.0745 0020639  60.1394 300.1505 15.24395768124775
STARLINK-30177          
1 57305U 23096R   25281.37106421  .00105776  00000+0  40676-2 0  9992
2 57305  42.9959 312.2192 0021244  58.7239 301.5689 15.25118806124025
STARLINK-30200          
1 57306U 23096S   25281.45126608  .00113624  00000+0  40395-2 0  9990
2 57306  42.9899 308.5440 0022216  68.2427 292.0786 15.27648907124077
STARLINK-30209          
1 57307U 23096T   25281.39404920  .00102345  00000+0  39656-2 0  9996
2 57307  42.9945 312.3764 0021425  61.6357 298.6651 15.24881530124028
STARLINK-30163          
1 57309U 23096V   25281.30606205  .00045903  00000+0  97375-3 0  9998
2 57309  42.9934 290.3895 0028660  87.3179 273.0959 15.43885115124261
STARLINK-30184          
1 57310U 23096W   25281.48379014  .00000615  00000+0  60574-4 0  9997
2 57310  43.0040 304.1759 0001171 268.6602  91.4106 15.02545265124124
STARLINK-30175          
1 57311U 23096X   25281.47264997  .00100266  00000+0  39299-2 0  9991
2 57311  42.9937 312.1201 0021620  59.4327 300.8653 15.24505536124035
STARLINK-6290           
1 57328U 23099A   25281.92708564 -.00000532  00000+0 -24341-4 0  9996
2 57328  43.0067 353.9491 0001394 269.2382  90.8300 15.02534543124199
STARLINK-6138           
1 57329U 23099B   25281.91709740 -.00000314  00000+0 -81455-5 0  9991
2 57329  43.0050 353.8692 0000825 260.9162  99.1587 15.02536087123289
STARLINK-6212           
1 57330U 23099C   25281.59137171 -.00000776  00000+0 -42407-4 0  9995
2 57330  43.0063 355.7292 0001439 268.6080  91.4598 15.02530556123235
STARLINK-6234           
1 57331U 23099D   25281.92264856 -.00000134  00000+0  51255-5 0  9993
2 57331  43.0053 353.9142 0001263 266.7802  93.2895 15.02533529123283
STARLINK-5831           
1 57332U 23099E   25281.25564431  .00000617  00000+0  60777-4 0  9995
2 57332  43.0039 357.5053 0001065 271.4700  88.6020 15.02533882123188
STARLINK-5585           
1 57333U 23099F   25281.91931801 -.00000809  00000+0 -44863-4 0  9991
2 57333  43.0047 353.8884 0000843 274.4659  85.6087 15.02534087123287
STARLINK-5589           
1 57334U 23099G   25281.51489117  .00001082  00000+0  95116-4 0  9995
2 57334  43.0044 356.0104 0001258 275.1788  84.8911 15.02538901123227
STARLINK-6316           
1 57335U 23099H   25281.90267002 -.00000929  00000+0 -53711-4 0  9992
2 57335  43.0055 353.7655 0001195 267.5675  92.5030 15.02531999123289
STARLINK-6320           
1 57336U 23099J   25281.54029477 -.00004919  00000+0 -34903-3 0  9999
2 57336  43.0042 355.3270 0001287 269.7932  90.2762 15.02565997123236
STARLINK-6322           
1 57337U 23099K   25281.91044405 -.00000844  00000+0 -47456-4 0  9990
2 57337  43.0061 353.8197 0000944 266.1102  93.9633 15.02529185123289
STARLINK-6374           
1 57338U 23099L   25281.90600136 -.00000330  00000+0 -93608-5 0  9990
2 57338  43.0049 353.7835 0001241 269.1855  90.8845 15.02530381123284
STARLINK-6332           
1 57339U 23099M   25281.51378098  .00001845  00000+0  15163-3 0  9995
2 57339  43.0046 356.0027 0001137 272.2515  87.8198 15.02539743123225
STARLINK-6321           
1 57340U 23099N   25281.89378825 -.00000673  00000+0 -34730-4 0  9998
2 57340  43.0046 353.6935 0001068 282.0968  77.9754 15.02534041123282
STARLINK-6377           
1 57341U 23099P   25281.89933763 -.00000367  00000+0 -12118-4 0  9993
2 57341  43.0054 353.7349 0001349 271.8226  88.2461 15.02532441123289
STARLINK-6375           
1 57342U 23099Q   25281.47827280 -.00001981  00000+0 -13160-3 0  9994
2 57342  43.0138 355.7356 0002385 278.0836  81.9735 15.02536652123226
STARLINK-6379           
1 57343U 23099R   25281.89600721 -.00000519  00000+0 -23330-4 0  9997
2 57343  43.0055 353.7084 0001246 261.1393  98.9309 15.02535325123284
STARLINK-6380           
1 57344U 23099S   25281.48825699  .00000647  00000+0  62981-4 0  9991
2 57344  43.0045 355.8090 0001204 275.6166  84.4539 15.02534385123220
STARLINK-6373           
1 57345U 23099T   25281.89046090  .00001050  00000+0  92792-4 0  9999
2 57345  43.0060 353.6678 0001149 257.5565 102.5149 15.02542399123285
STARLINK-6359           
1 57346U 23099U   25281.53808282  .00000493  00000+0  51573-4 0  9992
2 57346  43.0046 355.3192 0001035 264.3704  95.7020 15.02540703123238
STARLINK-6378           
1 57347U 23099V   25281.48382361 -.00000231  00000+0 -20321-5 0  9992
2 57347  43.0048 355.7761 0001098 270.7271  89.3446 15.02534966123220
STARLINK-6372           
1 57348U 23099W   25281.93141141 -.00001202  00000+0 -73913-4 0  9995
2 57348  43.0053 353.1148 0001316 263.8568  96.2125 15.02534354123292
STARLINK-6376           
1 57349U 23099X   25281.93362051 -.00000002  00000+0  14926-4 0  9996
2 57349  43.0050 353.1317 0001322 260.4202  99.6491 15.02541800124011
STARLINK-6362           
1 57350U 23099Y   25281.87308043 -.00002690  00000+0 -18424-3 0  9994
2 57350  43.0059 341.3731 0000875 280.6413  79.4331 15.02518996123424
STARLINK-6331           
1 57351U 23099Z   25281.59790627 -.00000297  00000+0 -69425-5 0  9997
2 57351  43.0072 354.9128 0001281 265.4616  94.6080 15.02537212123240
STARLINK-6297           
1 57352U 23099AA  25281.46754255  .00002145  00000+0  17386-3 0  9990
2 57352  43.0051 343.4892 0001339 261.7242  98.3448 15.02528586123363
STARLINK-6324           
1 57353U 23099AB  25281.92807264 -.00003947  00000+0 -27714-3 0  9990
2 57353  43.0066 353.0895 0001467 264.7860  95.2815 15.02552130123299
